[{"OBJECT_NAME":"GALS 1","OBJECT_ID":"1994-002A","EPOCH":"2026-03-03T22:48:08.919936","MEAN_MOTION":1.00299507,"ECCENTRICITY":0.0011466,"INCLINATION":14.5415,"RA_OF_ASC_NODE":354.6537,"ARG_OF_PERICENTER":242.5109,"MEAN_ANOMALY":302.2546,"EPHEMERIS_TYPE":0,"CLASSIFICATION_TYPE":"U","NORAD_CAT_ID":22963,"ELEMENT_SET_NO":999,"REV_AT_EPOCH":11765,"BSTAR":0,"MEAN_MOTION_DOT":1.16e-6,"MEAN_MOTION_DDOT":0},{"OBJECT_NAME":"SL-12 R/B(2)","OBJECT_ID":"1994-002D","EPOCH":"2026-03-03T00:25:11.146368","MEAN_MOTION":0.99471228,"ECCENTRICITY":0.0040217,"INCLINATION":13.9997,"RA_OF_ASC_NODE":344.8624,"ARG_OF_PERICENTER":145.005,"MEAN_ANOMALY":44.9539,"EPHEMERIS_TYPE":0,"CLASSIFICATION_TYPE":"U","NORAD_CAT_ID":22966,"ELEMENT_SET_NO":999,"REV_AT_EPOCH":11602,"BSTAR":0,"MEAN_MOTION_DOT":-1.16e-6,"MEAN_MOTION_DDOT":0},{"OBJECT_NAME":"VEP","OBJECT_ID":"1994-007B","EPOCH":"2026-03-01T19:18:01.949472","MEAN_MOTION":2.25988149,"ECCENTRICITY":0.72218152,"INCLINATION":29.1301,"RA_OF_ASC_NODE":56.1381,"ARG_OF_PERICENTER":235.5741,"MEAN_ANOMALY":34.9217,"EPHEMERIS_TYPE":0,"CLASSIFICATION_TYPE":"U","NORAD_CAT_ID":22979,"ELEMENT_SET_NO":999,"REV_AT_EPOCH":26387,"BSTAR":0.00052260333,"MEAN_MOTION_DOT":8.7e-7,"MEAN_MOTION_DDOT":0},{"OBJECT_NAME":"RADUGA-1 3","OBJECT_ID":"1994-008A","EPOCH":"2026-03-03T21:13:02.499744","MEAN_MOTION":1.0032298,"ECCENTRICITY":0.0001846,"INCLINATION":14.2128,"RA_OF_ASC_NODE":349.0049,"ARG_OF_PERICENTER":282.1997,"MEAN_ANOMALY":271.1637,"EPHEMERIS_TYPE":0,"CLASSIFICATION_TYPE":"U","NORAD_CAT_ID":22981,"ELEMENT_SET_NO":999,"REV_AT_EPOCH":11742,"BSTAR":0,"MEAN_MOTION_DOT":-1.5e-7,"MEAN_MOTION_DDOT":0},{"OBJECT_NAME":"USA 99 (MILSTAR-1 1)","OBJECT_ID":"1994-009A","EPOCH":"2026-03-04T03:53:38.649696","MEAN_MOTION":1.00273054,"ECCENTRICITY":0.0004273,"INCLINATION":17.4623,"RA_OF_ASC_NODE":28.8391,"ARG_OF_PERICENTER":305.8364,"MEAN_ANOMALY":155.6751,"EPHEMERIS_TYPE":0,"CLASSIFICATION_TYPE":"U","NORAD_CAT_ID":22988,"ELEMENT_SET_NO":999,"REV_AT_EPOCH":3190,"BSTAR":0,"MEAN_MOTION_DOT":-2.05e-6,"MEAN_MOTION_DDOT":0},{"OBJECT_NAME":"TITAN 4 CENTAUR R/B","OBJECT_ID":"1994-009B","EPOCH":"2026-03-03T07:01:43.395168","MEAN_MOTION":1.00594463,"ECCENTRICITY":0.0015111,"INCLINATION":16.7069,"RA_OF_ASC_NODE":23.8005,"ARG_OF_PERICENTER":239.9419,"MEAN_ANOMALY":119.9129,"EPHEMERIS_TYPE":0,"CLASSIFICATION_TYPE":"U","NORAD_CAT_ID":22989,"ELEMENT_SET_NO":999,"REV_AT_EPOCH":2422,"BSTAR":0,"MEAN_MOTION_DOT":-3.7e-6,"MEAN_MOTION_DDOT":0},{"OBJECT_NAME":"RADUGA 31","OBJECT_ID":"1994-012A","EPOCH":"2026-03-03T19:35:29.063040","MEAN_MOTION":1.00206066,"ECCENTRICITY":6.52e-5,"INCLINATION":14.1775,"RA_OF_ASC_NODE":349.0188,"ARG_OF_PERICENTER":175.7155,"MEAN_ANOMALY":11.0778,"EPHEMERIS_TYPE":0,"CLASSIFICATION_TYPE":"U","NORAD_CAT_ID":23010,"ELEMENT_SET_NO":999,"REV_AT_EPOCH":11729,"BSTAR":0,"MEAN_MOTION_DOT":-1.54e-6,"MEAN_MOTION_DDOT":0},{"OBJECT_NAME":"DELTA 2 R/B(2)","OBJECT_ID":"1994-013C","EPOCH":"2026-03-03T19:27:46.963872","MEAN_MOTION":2.02373513,"ECCENTRICITY":0.649953,"INCLINATION":24.9058,"RA_OF_ASC_NODE":251.7013,"ARG_OF_PERICENTER":189.5986,"MEAN_ANOMALY":146.1647,"EPHEMERIS_TYPE":0,"CLASSIFICATION_TYPE":"U","NORAD_CAT_ID":23018,"ELEMENT_SET_NO":999,"REV_AT_EPOCH":23661,"BSTAR":0,"MEAN_MOTION_DOT":1.71e-6,"MEAN_MOTION_DDOT":0},{"OBJECT_NAME":"TITAN 34D TRANSTAGE DEB","OBJECT_ID":"1988-077J","EPOCH":"2026-03-03T08:02:30.538752","MEAN_MOTION":2.03932574,"ECCENTRICITY":0.73327514,"INCLINATION":26.5241,"RA_OF_ASC_NODE":152.7486,"ARG_OF_PERICENTER":211.8925,"MEAN_ANOMALY":68.0178,"EPHEMERIS_TYPE":0,"CLASSIFICATION_TYPE":"U","NORAD_CAT_ID":23039,"ELEMENT_SET_NO":999,"REV_AT_EPOCH":4905,"BSTAR":-0.0012818847,"MEAN_MOTION_DOT":-3.75e-6,"MEAN_MOTION_DDOT":0},{"OBJECT_NAME":"TITAN 34D TRANSTAGE DEB","OBJECT_ID":"1988-077K","EPOCH":"2026-03-02T23:42:15.774912","MEAN_MOTION":2.19016082,"ECCENTRICITY":0.72939919,"INCLINATION":27.143,"RA_OF_ASC_NODE":61.7791,"ARG_OF_PERICENTER":245.2627,"MEAN_ANOMALY":26.2031,"EPHEMERIS_TYPE":0,"CLASSIFICATION_TYPE":"U","NORAD_CAT_ID":23040,"ELEMENT_SET_NO":999,"REV_AT_EPOCH":5452,"BSTAR":0.0011923088,"MEAN_MOTION_DOT":3.37e-6,"MEAN_MOTION_DDOT":0},{"OBJECT_NAME":"TITAN 34D TRANSTAGE DEB","OBJECT_ID":"1988-077L","EPOCH":"2026-02-20T09:07:22.556352","MEAN_MOTION":2.22312695,"ECCENTRICITY":0.7270105,"INCLINATION":27.1425,"RA_OF_ASC_NODE":55.7315,"ARG_OF_PERICENTER":255.0999,"MEAN_ANOMALY":20.8194,"EPHEMERIS_TYPE":0,"CLASSIFICATION_TYPE":"U","NORAD_CAT_ID":23041,"ELEMENT_SET_NO":999,"REV_AT_EPOCH":5411,"BSTAR":0.0018366,"MEAN_MOTION_DOT":6.14e-6,"MEAN_MOTION_DDOT":0},{"OBJECT_NAME":"GORIZONT 30","OBJECT_ID":"1994-030A","EPOCH":"2026-03-03T03:35:42.739872","MEAN_MOTION":1.00210137,"ECCENTRICITY":0.00059374,"INCLINATION":14.1034,"RA_OF_ASC_NODE":348.9738,"ARG_OF_PERICENTER":288.8824,"MEAN_ANOMALY":252.382,"EPHEMERIS_TYPE":0,"CLASSIFICATION_TYPE":"U","NORAD_CAT_ID":23108,"ELEMENT_SET_NO":999,"REV_AT_EPOCH":11639,"BSTAR":0,"MEAN_MOTION_DOT":-3.04e-6,"MEAN_MOTION_DDOT":0},{"OBJECT_NAME":"METEOSAT-6 AKM","OBJECT_ID":"1993-073E","EPOCH":"2026-03-02T15:13:56.808192","MEAN_MOTION":0.99999787,"ECCENTRICITY":0.0064709,"INCLINATION":14.2536,"RA_OF_ASC_NODE":347.8994,"ARG_OF_PERICENTER":106.0337,"MEAN_ANOMALY":75.633,"EPHEMERIS_TYPE":0,"CLASSIFICATION_TYPE":"U","NORAD_CAT_ID":23118,"ELEMENT_SET_NO":999,"REV_AT_EPOCH":4612,"BSTAR":0,"MEAN_MOTION_DOT":-3.37e-6,"MEAN_MOTION_DDOT":0},{"OBJECT_NAME":"ARIANE 44LP+ R/B","OBJECT_ID":"1994-034D","EPOCH":"2026-03-03T18:57:10.002240","MEAN_MOTION":2.26535158,"ECCENTRICITY":0.7220374,"INCLINATION":7.7662,"RA_OF_ASC_NODE":350.3,"ARG_OF_PERICENTER":48.1215,"MEAN_ANOMALY":353.8065,"EPHEMERIS_TYPE":0,"CLASSIFICATION_TYPE":"U","NORAD_CAT_ID":23127,"ELEMENT_SET_NO":999,"REV_AT_EPOCH":25923,"BSTAR":0.0024965,"MEAN_MOTION_DOT":5.52e-6,"MEAN_MOTION_DDOT":0},{"OBJECT_NAME":"TITAN 34D TRANSTAGE DEB","OBJECT_ID":"1988-077M","EPOCH":"2026-03-03T21:32:37.124160","MEAN_MOTION":2.00724381,"ECCENTRICITY":0.7269271,"INCLINATION":27.2279,"RA_OF_ASC_NODE":101.1858,"ARG_OF_PERICENTER":25.7061,"MEAN_ANOMALY":357.3516,"EPHEMERIS_TYPE":0,"CLASSIFICATION_TYPE":"U","NORAD_CAT_ID":23130,"ELEMENT_SET_NO":999,"REV_AT_EPOCH":4892,"BSTAR":0.016728,"MEAN_MOTION_DOT":-4.7e-7,"MEAN_MOTION_DDOT":0},{"OBJECT_NAME":"UFO 3 (USA 104)","OBJECT_ID":"1994-035A","EPOCH":"2026-03-04T01:47:38.626368","MEAN_MOTION":1.00265489,"ECCENTRICITY":0.0005696,"INCLINATION":12.3208,"RA_OF_ASC_NODE":6.3416,"ARG_OF_PERICENTER":293.3284,"MEAN_ANOMALY":241.0688,"EPHEMERIS_TYPE":0,"CLASSIFICATION_TYPE":"U","NORAD_CAT_ID":23132,"ELEMENT_SET_NO":999,"REV_AT_EPOCH":13064,"BSTAR":0,"MEAN_MOTION_DOT":-9.7e-7,"MEAN_MOTION_DDOT":0},{"OBJECT_NAME":"COSMOS 2282","OBJECT_ID":"1994-038A","EPOCH":"2026-03-03T14:39:38.728224","MEAN_MOTION":1.00241027,"ECCENTRICITY":0.00046042,"INCLINATION":13.8872,"RA_OF_ASC_NODE":353.4728,"ARG_OF_PERICENTER":122.0387,"MEAN_ANOMALY":95.5775,"EPHEMERIS_TYPE":0,"CLASSIFICATION_TYPE":"U","NORAD_CAT_ID":23168,"ELEMENT_SET_NO":999,"REV_AT_EPOCH":11594,"BSTAR":0,"MEAN_MOTION_DOT":6.4e-7,"MEAN_MOTION_DDOT":0},{"OBJECT_NAME":"SL-12 R/B(2)","OBJECT_ID":"1994-038D","EPOCH":"2026-03-04T02:55:38.762688","MEAN_MOTION":0.99426022,"ECCENTRICITY":0.002256,"INCLINATION":14.2269,"RA_OF_ASC_NODE":354.7018,"ARG_OF_PERICENTER":147.56,"MEAN_ANOMALY":305.8956,"EPHEMERIS_TYPE":0,"CLASSIFICATION_TYPE":"U","NORAD_CAT_ID":23171,"ELEMENT_SET_NO":999,"REV_AT_EPOCH":11497,"BSTAR":0,"MEAN_MOTION_DOT":3.6e-7,"MEAN_MOTION_DDOT":0},{"OBJECT_NAME":"OPTUS B3 PKM","OBJECT_ID":"1994-055C","EPOCH":"2026-03-03T22:39:08.486208","MEAN_MOTION":2.13697223,"ECCENTRICITY":0.7334078,"INCLINATION":24.0531,"RA_OF_ASC_NODE":51.3353,"ARG_OF_PERICENTER":57.9349,"MEAN_ANOMALY":353.0976,"EPHEMERIS_TYPE":0,"CLASSIFICATION_TYPE":"U","NORAD_CAT_ID":23229,"ELEMENT_SET_NO":999,"REV_AT_EPOCH":24202,"BSTAR":0.0011063,"MEAN_MOTION_DOT":2.64e-6,"MEAN_MOTION_DDOT":0},{"OBJECT_NAME":"KIKU-6 (ETS-VI)","OBJECT_ID":"1994-056A","EPOCH":"2026-03-03T16:47:15.186912","MEAN_MOTION":1.67087696,"ECCENTRICITY":0.50323433,"INCLINATION":12.8528,"RA_OF_ASC_NODE":249.2051,"ARG_OF_PERICENTER":166.0147,"MEAN_ANOMALY":248.6124,"EPHEMERIS_TYPE":0,"CLASSIFICATION_TYPE":"U","NORAD_CAT_ID":23230,"ELEMENT_SET_NO":999,"REV_AT_EPOCH":19248,"BSTAR":0,"MEAN_MOTION_DOT":-9.3e-7,"MEAN_MOTION_DDOT":0},{"OBJECT_NAME":"ARIANE 44L+ DEB","OBJECT_ID":"1992-021K","EPOCH":"2026-03-04T03:40:02.007264","MEAN_MOTION":2.23457105,"ECCENTRICITY":0.6981222,"INCLINATION":3.2274,"RA_OF_ASC_NODE":157.4328,"ARG_OF_PERICENTER":181.6604,"MEAN_ANOMALY":288.427,"EPHEMERIS_TYPE":0,"CLASSIFICATION_TYPE":"U","NORAD_CAT_ID":23240,"ELEMENT_SET_NO":999,"REV_AT_EPOCH":26146,"BSTAR":0,"MEAN_MOTION_DOT":-1.83e-6,"MEAN_MOTION_DDOT":0},{"OBJECT_NAME":"ARIANE 44L+ DEB","OBJECT_ID":"1992-021N","EPOCH":"2026-03-03T23:11:44.043936","MEAN_MOTION":2.21566602,"ECCENTRICITY":0.688796,"INCLINATION":4.2529,"RA_OF_ASC_NODE":58.9724,"ARG_OF_PERICENTER":347.2778,"MEAN_ANOMALY":3.1126,"EPHEMERIS_TYPE":0,"CLASSIFICATION_TYPE":"U","NORAD_CAT_ID":23244,"ELEMENT_SET_NO":999,"REV_AT_EPOCH":25679,"BSTAR":0,"MEAN_MOTION_DOT":-1.26e-6,"MEAN_MOTION_DDOT":0},{"OBJECT_NAME":"TITAN 4 CENTAUR R/B","OBJECT_ID":"1994-054B","EPOCH":"2026-03-03T13:44:23.876448","MEAN_MOTION":0.99589669,"ECCENTRICITY":0.0115617,"INCLINATION":12.2504,"RA_OF_ASC_NODE":355.0145,"ARG_OF_PERICENTER":351.6863,"MEAN_ANOMALY":8.1353,"EPHEMERIS_TYPE":0,"CLASSIFICATION_TYPE":"U","NORAD_CAT_ID":23247,"ELEMENT_SET_NO":999,"REV_AT_EPOCH":2447,"BSTAR":0,"MEAN_MOTION_DOT":-2.72e-6,"MEAN_MOTION_DDOT":0},{"OBJECT_NAME":"ETS 6 DEB","OBJECT_ID":"1994-056C","EPOCH":"2026-03-01T16:12:35.860320","MEAN_MOTION":1.70299907,"ECCENTRICITY":0.51871695,"INCLINATION":11.7555,"RA_OF_ASC_NODE":152.4782,"ARG_OF_PERICENTER":339.0963,"MEAN_ANOMALY":126.5435,"EPHEMERIS_TYPE":0,"CLASSIFICATION_TYPE":"U","NORAD_CAT_ID":23248,"ELEMENT_SET_NO":999,"REV_AT_EPOCH":19587,"BSTAR":0,"MEAN_MOTION_DOT":-1.2e-6,"MEAN_MOTION_DDOT":0}]
